start=new Date('2022-04-12T00:00:00.000Z').valueOf();
sats=[{"CLASSIFICATION_TYPE":"U","MEAN_MOTION_DOT":"0.00001683","RCS_SIZE":"LARGE","OBJECT_NAME":"STARLINK-1805","REV_AT_EPOCH":"8167","LAUNCH_DATE":"2020-10-18","TLE_LINE2":"2 46705  53.0535 187.4848 0001612  60.2118 299.9031 15.06399537 81676","ECCENTRICITY":"0.00016120","APOAPSIS":"548.331","MEAN_MOTION":"15.06399537","PERIOD":"95.592","MEAN_ELEMENT_THEORY":"SGP4","OBJECT_ID":"2020-073AM","ARG_OF_PERICENTER":"60.2118","EPOCH":"2022-04-11T14:44:52.109664","RA_OF_ASC_NODE":"187.4848","EPHEMERIS_TYPE":"0","OBJECT_TYPE":"PAYLOAD","BSTAR":"0.00013186000000","ELEMENT_SET_NO":"999","TIME_SYSTEM":"UTC","NORAD_CAT_ID":"46705","MEAN_MOTION_DDOT":"0.0000000000000","SEMIMAJOR_AXIS":"6925.350","PERIAPSIS":"546.099","MEAN_ANOMALY":"299.9031","INCLINATION":"53.0535","COUNTRY_CODE":"US","DECAY_DATE":null,"FILE":"3397723","CENTER_NAME":"EARTH","GP_ID":"201016761","REF_FRAME":"TEME","SITE":"AFETR","TLE_LINE1":"1 46705U 20073AM  22101.61449201  .00001683  00000-0  13186-3 0  9997"},{"BSTAR":"0.00003880500000","EPHEMERIS_TYPE":"0","OBJECT_TYPE":"PAYLOAD","ELEMENT_SET_NO":"999","TIME_SYSTEM":"UTC","NORAD_CAT_ID":"46706","MEAN_MOTION_DDOT":"0.0000000000000","RA_OF_ASC_NODE":"172.3182","GP_ID":"201017511","CENTER_NAME":"EARTH","TLE_LINE1":"1 46706U 20073AN  22101.65458375  .00000296  00000-0  38805-4 0  9999","REF_FRAME":"TEME","SITE":"AFETR","PERIAPSIS":"545.879","SEMIMAJOR_AXIS":"6925.377","DECAY_DATE":null,"FILE":"3397723","MEAN_ANOMALY":"314.6919","INCLINATION":"53.0553","COUNTRY_CODE":"US","REV_AT_EPOCH":"8189","RCS_SIZE":"LARGE","OBJECT_NAME":"STARLINK-1807","LAUNCH_DATE":"2020-10-18","CLASSIFICATION_TYPE":"U","MEAN_MOTION_DOT":"0.00000296","EPOCH":"2022-04-11T15:42:36.036000","ECCENTRICITY":"0.00019680","APOAPSIS":"548.605","TLE_LINE2":"2 46706  53.0553 172.3182 0001968  45.4230 314.6919 15.06390767 81895","MEAN_ELEMENT_THEORY":"SGP4","PERIOD":"95.593","OBJECT_ID":"2020-073AN","ARG_OF_PERICENTER":"45.4230","MEAN_MOTION":"15.06390767"},{"GP_ID":"201016259","CENTER_NAME":"EARTH","REF_FRAME":"TEME","SITE":"AFETR","TLE_LINE1":"1 46707U 20073AP  22101.64536633  .00003320  00000-0  24166-3 0  9998","PERIAPSIS":"545.928","SEMIMAJOR_AXIS":"6925.345","MEAN_ANOMALY":"315.7960","INCLINATION":"53.0526","COUNTRY_CODE":"US","DECAY_DATE":null,"FILE":"3397723","EPHEMERIS_TYPE":"0","OBJECT_TYPE":"PAYLOAD","BSTAR":"0.00024166000000","ELEMENT_SET_NO":"999","TIME_SYSTEM":"UTC","NORAD_CAT_ID":"46707","MEAN_MOTION_DDOT":"0.0000000000000","RA_OF_ASC_NODE":"152.3477","EPOCH":"2022-04-11T15:29:19.650912","TLE_LINE2":"2 46707  53.0526 152.3477 0001850  44.3177 315.7960 15.06401281 82173","ECCENTRICITY":"0.00018500","APOAPSIS":"548.491","MEAN_MOTION":"15.06401281","MEAN_ELEMENT_THEORY":"SGP4","PERIOD":"95.592","ARG_OF_PERICENTER":"44.3177","OBJECT_ID":"2020-073AP","RCS_SIZE":"LARGE","OBJECT_NAME":"STARLINK-1808","REV_AT_EPOCH":"8217","LAUNCH_DATE":"2020-10-18","CLASSIFICATION_TYPE":"U","MEAN_MOTION_DOT":"0.00003320"},{"CLASSIFICATION_TYPE":"U","MEAN_MOTION_DOT":"0.00138449","REV_AT_EPOCH":"8313","RCS_SIZE":"LARGE","OBJECT_NAME":"STARLINK-1809","LAUNCH_DATE":"2020-10-18","ECCENTRICITY":"0.00044220","APOAPSIS":"347.717","TLE_LINE2":"2 46708  53.0491  82.3288 0004422  65.8901 294.2579 15.74960869 83139","PERIOD":"91.431","MEAN_ELEMENT_THEORY":"SGP4","ARG_OF_PERICENTER":"65.8901","OBJECT_ID":"2020-073AQ","MEAN_MOTION":"15.74960869","EPOCH":"2022-04-11T08:44:55.727232","RA_OF_ASC_NODE":"82.3288","BSTAR":"0.00090302000000","EPHEMERIS_TYPE":"0","OBJECT_TYPE":"PAYLOAD","TIME_SYSTEM":"UTC","ELEMENT_SET_NO":"999","NORAD_CAT_ID":"46708","MEAN_MOTION_DDOT":"0.0000000000000","SEMIMAJOR_AXIS":"6722.880","PERIAPSIS":"341.772","DECAY_DATE":null,"FILE":"3397378","MEAN_ANOMALY":"294.2579","INCLINATION":"53.0491","COUNTRY_CODE":"US","GP_ID":"200984443","CENTER_NAME":"EARTH","TLE_LINE1":"1 46708U 20073AQ  22101.36453388  .00138449  00000-0  90302-3 0  9999","REF_FRAME":"TEME","SITE":"AFETR"},{"RA_OF_ASC_NODE":"187.0781","MEAN_MOTION_DDOT":"0.0000000000000","NORAD_CAT_ID":"46709","TIME_SYSTEM":"UTC","ELEMENT_SET_NO":"999","OBJECT_TYPE":"PAYLOAD","EPHEMERIS_TYPE":"0","BSTAR":"0.00013361000000","COUNTRY_CODE":"US","MEAN_ANOMALY":"305.6158","INCLINATION":"53.0535","FILE":"3397723","DECAY_DATE":null,"SEMIMAJOR_AXIS":"6925.359","PERIAPSIS":"546.027","SITE":"AFETR","REF_FRAME":"TEME","TLE_LINE1":"1 46709U 20073AR  22101.70937977  .00001709  00000-0  13361-3 0  9997","CENTER_NAME":"EARTH","GP_ID":"201017261","MEAN_MOTION_DOT":"0.00001709","CLASSIFICATION_TYPE":"U","LAUNCH_DATE":"2020-10-18","OBJECT_NAME":"STARLINK-1810","RCS_SIZE":"LARGE","REV_AT_EPOCH":"8168","MEAN_MOTION":"15.06396556","ARG_OF_PERICENTER":"54.4993","OBJECT_ID":"2020-073AR","PERIOD":"95.592","MEAN_ELEMENT_THEORY":"SGP4","TLE_LINE2":"2 46709  53.0535 187.0781 0001729  54.4993 305.6158 15.06396556 81681","APOAPSIS":"548.422","ECCENTRICITY":"0.00017290","EPOCH":"2022-04-11T17:01:30.412128"},{"TLE_LINE1":"1 46710U 20073AS  22101.60711690 -.00001215  00000-0 -62700-4 0  9996","SITE":"AFETR","REF_FRAME":"TEME","GP_ID":"201017012","CENTER_NAME":"EARTH","FILE":"3397723","DECAY_DATE":null,"COUNTRY_CODE":"US","INCLINATION":"53.0520","MEAN_ANOMALY":"308.3790","PERIAPSIS":"546.084","SEMIMAJOR_AXIS":"6925.367","MEAN_MOTION_DDOT":"0.0000000000000","NORAD_CAT_ID":"46710","TIME_SYSTEM":"UTC","ELEMENT_SET_NO":"999","BSTAR":"-0.00006270000000","OBJECT_TYPE":"PAYLOAD","EPHEMERIS_TYPE":"0","RA_OF_ASC_NODE":"187.5213","EPOCH":"2022-04-11T14:34:14.900160","OBJECT_ID":"2020-073AS","ARG_OF_PERICENTER":"51.7348","PERIOD":"95.593","MEAN_ELEMENT_THEORY":"SGP4","MEAN_MOTION":"15.06393980","APOAPSIS":"548.380","ECCENTRICITY":"0.00016580","TLE_LINE2":"2 46710  53.0520 187.5213 0001658  51.7348 308.3790 15.06393980 81676","LAUNCH_DATE":"2020-10-18","REV_AT_EPOCH":"8167","OBJECT_NAME":"STARLINK-1811","RCS_SIZE":"LARGE","MEAN_MOTION_DOT":"-0.00001215","CLASSIFICATION_TYPE":"U"},{"RA_OF_ASC_NODE":"172.9492","ELEMENT_SET_NO":"999","TIME_SYSTEM":"UTC","NORAD_CAT_ID":"46711","MEAN_MOTION_DDOT":"0.0000000000000","BSTAR":"0.00007293900000","EPHEMERIS_TYPE":"0","OBJECT_TYPE":"PAYLOAD","DECAY_DATE":null,"FILE":"3397179","MEAN_ANOMALY":"314.3296","INCLINATION":"53.0533","COUNTRY_CODE":"US","SEMIMAJOR_AXIS":"6925.342","PERIAPSIS":"546.088","TLE_LINE1":"1 46711U 20073AT  22101.51450670  .00000805  00000-0  72939-4 0  9992","REF_FRAME":"TEME","SITE":"AFETR","CENTER_NAME":"EARTH","GP_ID":"200958456","CLASSIFICATION_TYPE":"U","MEAN_MOTION_DOT":"0.00000805","LAUNCH_DATE":"2020-10-18","REV_AT_EPOCH":"8233","RCS_SIZE":"LARGE","OBJECT_NAME":"STARLINK-1813","PERIOD":"95.592","MEAN_ELEMENT_THEORY":"SGP4","OBJECT_ID":"2020-073AT","ARG_OF_PERICENTER":"45.7825","MEAN_MOTION":"15.06402138","ECCENTRICITY":"0.00016160","APOAPSIS":"548.326","TLE_LINE2":"2 46711  53.0533 172.9492 0001616  45.7825 314.3296 15.06402138 82333","EPOCH":"2022-04-11T12:20:53.378880"},{"RA_OF_ASC_NODE":"172.2033","OBJECT_TYPE":"PAYLOAD","EPHEMERIS_TYPE":"0","BSTAR":"0.00013232000000","MEAN_MOTION_DDOT":"0.0000000000000","NORAD_CAT_ID":"46712","TIME_SYSTEM":"UTC","ELEMENT_SET_NO":"999","SEMIMAJOR_AXIS":"6925.364","PERIAPSIS":"546.085","COUNTRY_CODE":"US","MEAN_ANOMALY":"308.7954","INCLINATION":"53.0526","FILE":"3397723","DECAY_DATE":null,"CENTER_NAME":"EARTH","GP_ID":"201016010","SITE":"AFETR","REF_FRAME":"TEME","TLE_LINE1":"1 46712U 20073AU  22101.67943712  .00001690  00000-0  13232-3 0  9997","MEAN_MOTION_DOT":"0.00001690","CLASSIFICATION_TYPE":"U","OBJECT_NAME":"STARLINK-1814","RCS_SIZE":"LARGE","REV_AT_EPOCH":"8189","LAUNCH_DATE":"2020-10-18","TLE_LINE2":"2 46712  53.0526 172.2033 0001652  51.3183 308.7954 15.06395081 81896","APOAPSIS":"548.373","ECCENTRICITY":"0.00016520","MEAN_MOTION":"15.06395081","OBJECT_ID":"2020-073AU","ARG_OF_PERICENTER":"51.3183","MEAN_ELEMENT_THEORY":"SGP4","PERIOD":"95.592","EPOCH":"2022-04-11T16:18:23.367168"},{"EPOCH":"2022-04-11T16:35:40.097184","ECCENTRICITY":"0.00016960","APOAPSIS":"548.395","TLE_LINE2":"2 46713  53.0526 172.1468 0001696  51.7816 308.3325 15.06397651 81896","MEAN_ELEMENT_THEORY":"SGP4","PERIOD":"95.592","OBJECT_ID":"2020-073AV","ARG_OF_PERICENTER":"51.7816","MEAN_MOTION":"15.06397651","REV_AT_EPOCH":"8189","RCS_SIZE":"LARGE","OBJECT_NAME":"STARLINK-1815","LAUNCH_DATE":"2020-10-18","CLASSIFICATION_TYPE":"U","MEAN_MOTION_DOT":"-0.00000542","GP_ID":"201016762","CENTER_NAME":"EARTH","TLE_LINE1":"1 46713U 20073AV  22101.69143631 -.00000542  00000-0 -17488-4 0  9997","REF_FRAME":"TEME","SITE":"AFETR","SEMIMAJOR_AXIS":"6925.356","PERIAPSIS":"546.046","DECAY_DATE":null,"FILE":"3397723","MEAN_ANOMALY":"308.3325","INCLINATION":"53.0526","COUNTRY_CODE":"US","BSTAR":"-0.00001748800000","EPHEMERIS_TYPE":"0","OBJECT_TYPE":"PAYLOAD","ELEMENT_SET_NO":"999","TIME_SYSTEM":"UTC","NORAD_CAT_ID":"46713","MEAN_MOTION_DDOT":"0.0000000000000","RA_OF_ASC_NODE":"172.1468"},{"LAUNCH_DATE":"2020-10-18","RCS_SIZE":"LARGE","OBJECT_NAME":"STARLINK-1816","REV_AT_EPOCH":"8189","CLASSIFICATION_TYPE":"U","MEAN_MOTION_DOT":"0.00001699","EPOCH":"2022-04-11T16:19:44.741280","MEAN_MOTION":"15.06395556","MEAN_ELEMENT_THEORY":"SGP4","PERIOD":"95.592","OBJECT_ID":"2020-073AW","ARG_OF_PERICENTER":"58.2624","TLE_LINE2":"2 46714  53.0527 172.2063 0001702  58.2624 301.8531 15.06395556 81896","ECCENTRICITY":"0.00017020","APOAPSIS":"548.406","TIME_SYSTEM":"UTC","ELEMENT_SET_NO":"999","NORAD_CAT_ID":"46714","MEAN_MOTION_DDOT":"0.0000000000000","EPHEMERIS_TYPE":"0","OBJECT_TYPE":"PAYLOAD","BSTAR":"0.00013295000000","RA_OF_ASC_NODE":"172.2063","REF_FRAME":"TEME","SITE":"AFETR","TLE_LINE1":"1 46714U 20073AW  22101.68037895  .00001699  00000-0  13295-3 0  9994","GP_ID":"201017512","CENTER_NAME":"EARTH","MEAN_ANOMALY":"301.8531","INCLINATION":"53.0527","COUNTRY_CODE":"US","DECAY_DATE":null,"FILE":"3397723","SEMIMAJOR_AXIS":"6925.362","PERIAPSIS":"546.048"}];
